CCSDS_OMM_VERS = 2.0
CREATION_DATE  = 
ORIGINATOR     = 

OBJECT_NAME    = STARLINK-36811
OBJECT_ID      = 2026-032M
CENTER_NAME    = EARTH
REF_FRAME      = TEME
TIME_SYSTEM    = UTC
MEAN_ELEMENT_THEORY = SGP/SGP4

EPOCH          = 2026-03-03T03:04:12.739008
MEAN_MOTION    = 15.80892274
ECCENTRICITY   = .0001425
INCLINATION    = 97.2837
RA_OF_ASC_NODE = 248.3392
ARG_OF_PERICENTER = 73.1784
MEAN_ANOMALY   = 286.9640

EPHEMERIS_TYPE = 0
CLASSIFICATION_TYPE = U
NORAD_CAT_ID   = 67808
ELEMENT_SET_NO = 999
REV_AT_EPOCH   = 375
BSTAR          = .11129E-2
MEAN_MOTION_DOT = .219243E-2
MEAN_MOTION_DDOT = 0

CCSDS_OMM_VERS = 2.0
CREATION_DATE  = 
ORIGINATOR     = 

OBJECT_NAME    = STARLINK-36795
OBJECT_ID      = 2026-032N
CENTER_NAME    = EARTH
REF_FRAME      = TEME
TIME_SYSTEM    = UTC
MEAN_ELEMENT_THEORY = SGP/SGP4

EPOCH          = 2026-03-03T04:00:01.999584
MEAN_MOTION    = 15.75171532
ECCENTRICITY   = .0001693
INCLINATION    = 97.2848
RA_OF_ASC_NODE = 248.3634
ARG_OF_PERICENTER = 89.1501
MEAN_ANOMALY   = 88.5186

EPHEMERIS_TYPE = 0
CLASSIFICATION_TYPE = U
NORAD_CAT_ID   = 67809
ELEMENT_SET_NO = 999
REV_AT_EPOCH   = 373
BSTAR          = .22936E-3
MEAN_MOTION_DOT = .3419E-3
MEAN_MOTION_DDOT = 0

CCSDS_OMM_VERS = 2.0
CREATION_DATE  = 
ORIGINATOR     = 

OBJECT_NAME    = STARLINK-36807
OBJECT_ID      = 2026-032P
CENTER_NAME    = EARTH
REF_FRAME      = TEME
TIME_SYSTEM    = UTC
MEAN_ELEMENT_THEORY = SGP/SGP4

EPOCH          = 2026-03-03T03:01:14.536416
MEAN_MOTION    = 15.80943852
ECCENTRICITY   = .0001468
INCLINATION    = 97.2830
RA_OF_ASC_NODE = 248.3410
ARG_OF_PERICENTER = 71.3812
MEAN_ANOMALY   = 288.7615

EPHEMERIS_TYPE = 0
CLASSIFICATION_TYPE = U
NORAD_CAT_ID   = 67810
ELEMENT_SET_NO = 999
REV_AT_EPOCH   = 375
BSTAR          = .16364E-2
MEAN_MOTION_DOT = .327262E-2
MEAN_MOTION_DDOT = 0

CCSDS_OMM_VERS = 2.0
CREATION_DATE  = 
ORIGINATOR     = 

OBJECT_NAME    = STARLINK-36733
OBJECT_ID      = 2026-032Q
CENTER_NAME    = EARTH
REF_FRAME      = TEME
TIME_SYSTEM    = UTC
MEAN_ELEMENT_THEORY = SGP/SGP4

EPOCH          = 2026-03-03T02:59:27.251808
MEAN_MOTION    = 15.80890059
ECCENTRICITY   = .00014
INCLINATION    = 97.2831
RA_OF_ASC_NODE = 248.3422
ARG_OF_PERICENTER = 70.4243
MEAN_ANOMALY   = 289.7177

EPHEMERIS_TYPE = 0
CLASSIFICATION_TYPE = U
NORAD_CAT_ID   = 67811
ELEMENT_SET_NO = 999
REV_AT_EPOCH   = 375
BSTAR          = .99356E-3
MEAN_MOTION_DOT = .195148E-2
MEAN_MOTION_DDOT = 0

CCSDS_OMM_VERS = 2.0
CREATION_DATE  = 
ORIGINATOR     = 

OBJECT_NAME    = STARLINK-36377
OBJECT_ID      = 2026-032R
CENTER_NAME    = EARTH
REF_FRAME      = TEME
TIME_SYSTEM    = UTC
MEAN_ELEMENT_THEORY = SGP/SGP4

EPOCH          = 2026-03-03T02:54:53.144352
MEAN_MOTION    = 15.80913003
ECCENTRICITY   = .0001442
INCLINATION    = 97.2830
RA_OF_ASC_NODE = 248.3468
ARG_OF_PERICENTER = 77.7423
MEAN_ANOMALY   = 282.4007

EPHEMERIS_TYPE = 0
CLASSIFICATION_TYPE = U
NORAD_CAT_ID   = 67812
ELEMENT_SET_NO = 999
REV_AT_EPOCH   = 375
BSTAR          = .12762E-2
MEAN_MOTION_DOT = .25263E-2
MEAN_MOTION_DDOT = 0

CCSDS_OMM_VERS = 2.0
CREATION_DATE  = 
ORIGINATOR     = 

OBJECT_NAME    = STARLINK-36732
OBJECT_ID      = 2026-032S
CENTER_NAME    = EARTH
REF_FRAME      = TEME
TIME_SYSTEM    = UTC
MEAN_ELEMENT_THEORY = SGP/SGP4

EPOCH          = 2026-03-03T02:56:17.187360
MEAN_MOTION    = 15.80901948
ECCENTRICITY   = .0001694
INCLINATION    = 97.2832
RA_OF_ASC_NODE = 248.3444
ARG_OF_PERICENTER = 70.1603
MEAN_ANOMALY   = 289.9847

EPHEMERIS_TYPE = 0
CLASSIFICATION_TYPE = U
NORAD_CAT_ID   = 67813
ELEMENT_SET_NO = 999
REV_AT_EPOCH   = 375
BSTAR          = .11636E-2
MEAN_MOTION_DOT = .229607E-2
MEAN_MOTION_DDOT = 0

CCSDS_OMM_VERS = 2.0
CREATION_DATE  = 
ORIGINATOR     = 

OBJECT_NAME    = STARLINK-36767
OBJECT_ID      = 2026-032T
CENTER_NAME    = EARTH
REF_FRAME      = TEME
TIME_SYSTEM    = UTC
MEAN_ELEMENT_THEORY = SGP/SGP4

EPOCH          = 2026-03-03T04:00:01.999584
MEAN_MOTION    = 15.75184334
ECCENTRICITY   = .0001669
INCLINATION    = 97.2846
RA_OF_ASC_NODE = 248.3689
ARG_OF_PERICENTER = 81.5492
MEAN_ANOMALY   = 114.1113

EPHEMERIS_TYPE = 0
CLASSIFICATION_TYPE = U
NORAD_CAT_ID   = 67814
ELEMENT_SET_NO = 999
REV_AT_EPOCH   = 373
BSTAR          = .12772E-3
MEAN_MOTION_DOT = .18959E-3
MEAN_MOTION_DDOT = 0

CCSDS_OMM_VERS = 2.0
CREATION_DATE  = 
ORIGINATOR     = 

OBJECT_NAME    = STARLINK-36797
OBJECT_ID      = 2026-032U
CENTER_NAME    = EARTH
REF_FRAME      = TEME
TIME_SYSTEM    = UTC
MEAN_ELEMENT_THEORY = SGP/SGP4

EPOCH          = 2026-03-03T04:00:01.999584
MEAN_MOTION    = 15.75187237
ECCENTRICITY   = .0001065
INCLINATION    = 97.2849
RA_OF_ASC_NODE = 248.3900
ARG_OF_PERICENTER = 100.3004
MEAN_ANOMALY   = 145.2966

EPHEMERIS_TYPE = 0
CLASSIFICATION_TYPE = U
NORAD_CAT_ID   = 67815
ELEMENT_SET_NO = 999
REV_AT_EPOCH   = 367
BSTAR          = .3297E-3
MEAN_MOTION_DOT = .49325E-3
MEAN_MOTION_DDOT = 0

CCSDS_OMM_VERS = 2.0
CREATION_DATE  = 
ORIGINATOR     = 

OBJECT_NAME    = STARLINK-36343
OBJECT_ID      = 2026-032V
CENTER_NAME    = EARTH
REF_FRAME      = TEME
TIME_SYSTEM    = UTC
MEAN_ELEMENT_THEORY = SGP/SGP4

EPOCH          = 2026-03-03T02:51:05.799168
MEAN_MOTION    = 15.80891361
ECCENTRICITY   = .0001708
INCLINATION    = 97.2831
RA_OF_ASC_NODE = 248.3492
ARG_OF_PERICENTER = 74.7975
MEAN_ANOMALY   = 285.3482

EPHEMERIS_TYPE = 0
CLASSIFICATION_TYPE = U
NORAD_CAT_ID   = 67816
ELEMENT_SET_NO = 999
REV_AT_EPOCH   = 375
BSTAR          = .97905E-3
MEAN_MOTION_DOT = .192245E-2
MEAN_MOTION_DDOT = 0

CCSDS_OMM_VERS = 2.0
CREATION_DATE  = 
ORIGINATOR     = 

OBJECT_NAME    = STARLINK-36756
OBJECT_ID      = 2026-032W
CENTER_NAME    = EARTH
REF_FRAME      = TEME
TIME_SYSTEM    = UTC
MEAN_ELEMENT_THEORY = SGP/SGP4

EPOCH          = 2026-03-03T04:00:01.999584
MEAN_MOTION    = 15.78412251
ECCENTRICITY   = .0001914
INCLINATION    = 97.2840
RA_OF_ASC_NODE = 248.4084
ARG_OF_PERICENTER = 89.8531
MEAN_ANOMALY   = 201.4691

EPHEMERIS_TYPE = 0
CLASSIFICATION_TYPE = U
NORAD_CAT_ID   = 67817
ELEMENT_SET_NO = 999
REV_AT_EPOCH   = 373
BSTAR          = -.13235E-1
MEAN_MOTION_DOT = -.1974005E-1
MEAN_MOTION_DDOT = 0

CCSDS_OMM_VERS = 2.0
CREATION_DATE  = 
ORIGINATOR     = 

OBJECT_NAME    = STARLINK-36346
OBJECT_ID      = 2026-032X
CENTER_NAME    = EARTH
REF_FRAME      = TEME
TIME_SYSTEM    = UTC
MEAN_ELEMENT_THEORY = SGP/SGP4

EPOCH          = 2026-03-03T02:43:14.077632
MEAN_MOTION    = 15.80907572
ECCENTRICITY   = .0001807
INCLINATION    = 97.2826
RA_OF_ASC_NODE = 248.3571
ARG_OF_PERICENTER = 73.2470
MEAN_ANOMALY   = 286.8996

EPHEMERIS_TYPE = 0
CLASSIFICATION_TYPE = U
NORAD_CAT_ID   = 67818
ELEMENT_SET_NO = 999
REV_AT_EPOCH   = 375
BSTAR          = .12787E-2
MEAN_MOTION_DOT = .25309E-2
MEAN_MOTION_DDOT = 0

CCSDS_OMM_VERS = 2.0
CREATION_DATE  = 
ORIGINATOR     = 

OBJECT_NAME    = STARLINK-36788
OBJECT_ID      = 2026-032Y
CENTER_NAME    = EARTH
REF_FRAME      = TEME
TIME_SYSTEM    = UTC
MEAN_ELEMENT_THEORY = SGP/SGP4

EPOCH          = 2026-03-03T04:00:01.999584
MEAN_MOTION    = 15.75181797
ECCENTRICITY   = .000177
INCLINATION    = 97.2849
RA_OF_ASC_NODE = 248.3852
ARG_OF_PERICENTER = 84.4585
MEAN_ANOMALY   = 149.1977

EPHEMERIS_TYPE = 0
CLASSIFICATION_TYPE = U
NORAD_CAT_ID   = 67819
ELEMENT_SET_NO = 999
REV_AT_EPOCH   = 367
BSTAR          = .64107E-4
MEAN_MOTION_DOT = .944E-4
MEAN_MOTION_DDOT = 0

CCSDS_OMM_VERS = 2.0
CREATION_DATE  = 
ORIGINATOR     = 

OBJECT_NAME    = STARLINK-36353
OBJECT_ID      = 2026-032Z
CENTER_NAME    = EARTH
REF_FRAME      = TEME
TIME_SYSTEM    = UTC
MEAN_ELEMENT_THEORY = SGP/SGP4

EPOCH          = 2026-03-03T04:00:01.999584
MEAN_MOTION    = 15.75263192
ECCENTRICITY   = .0001838
INCLINATION    = 97.2848
RA_OF_ASC_NODE = 248.3942
ARG_OF_PERICENTER = 81.1220
MEAN_ANOMALY   = 174.4426

EPHEMERIS_TYPE = 0
CLASSIFICATION_TYPE = U
NORAD_CAT_ID   = 67820
ELEMENT_SET_NO = 999
REV_AT_EPOCH   = 373
BSTAR          = -.34377E-3
MEAN_MOTION_DOT = -.51264E-3
MEAN_MOTION_DDOT = 0

CCSDS_OMM_VERS = 2.0
CREATION_DATE  = 
ORIGINATOR     = 

OBJECT_NAME    = STARLINK-36644
OBJECT_ID      = 2026-033A
CENTER_NAME    = EARTH
REF_FRAME      = TEME
TIME_SYSTEM    = UTC
MEAN_ELEMENT_THEORY = SGP/SGP4

EPOCH          = 2026-03-03T03:04:59.294784
MEAN_MOTION    = 15.82049789
ECCENTRICITY   = .0001766
INCLINATION    = 42.9976
RA_OF_ASC_NODE = 311.7368
ARG_OF_PERICENTER = 268.5320
MEAN_ANOMALY   = 91.5349

EPHEMERIS_TYPE = 0
CLASSIFICATION_TYPE = U
NORAD_CAT_ID   = 67821
ELEMENT_SET_NO = 999
REV_AT_EPOCH   = 358
BSTAR          = .68947E-3
MEAN_MOTION_DOT = .147374E-2
MEAN_MOTION_DDOT = 0

CCSDS_OMM_VERS = 2.0
CREATION_DATE  = 
ORIGINATOR     = 

OBJECT_NAME    = STARLINK-36643
OBJECT_ID      = 2026-033B
CENTER_NAME    = EARTH
REF_FRAME      = TEME
TIME_SYSTEM    = UTC
MEAN_ELEMENT_THEORY = SGP/SGP4

EPOCH          = 2026-03-03T03:03:54.319392
MEAN_MOTION    = 15.82113169
ECCENTRICITY   = .0002063
INCLINATION    = 42.9973
RA_OF_ASC_NODE = 311.7301
ARG_OF_PERICENTER = 256.1102
MEAN_ANOMALY   = 103.9541

EPHEMERIS_TYPE = 0
CLASSIFICATION_TYPE = U
NORAD_CAT_ID   = 67822
ELEMENT_SET_NO = 999
REV_AT_EPOCH   = 358
BSTAR          = .14236E-2
MEAN_MOTION_DOT = .311683E-2
MEAN_MOTION_DDOT = 0

